{"type": "FeatureCollection", "features": [ {"type": "Feature", "properties": {"norad_id": 30173, "name": "FENGYUN 1C DEB", "group": "fengyun-1c-debris", "lat": -32.12791091261014, "lon": -121.14472541242694, "alt_km": 827.5912417950676, "timestamp": "2025-12-19T18:58:41.862467+00:00", "meta": {"OBJECT_NAME": "FENGYUN 1C DEB", "OBJECT_ID": "1999-025UE", "EPOCH": "2025-12-18T17:03:56.332224", "MEAN_MOTION": 14.11417427, "ECCENTRICITY": 0.00809216, "INCLINATION": 98.9768, "RA_OF_ASC_NODE": 63.4725, "ARG_OF_PERICENTER": 271.6614, "MEAN_ANOMALY": 218.5759, "EPHEMERIS_TYPE": 0, "CLASSIFICATION_TYPE": "U", "NORAD_CAT_ID": 30173, "ELEMENT_SET_NO": 999, "REV_AT_EPOCH": 96633, "BSTAR": 0.0012258119, "MEAN_MOTION_DOT": 2.244e-05, "MEAN_MOTION_DDOT": 0}, "tle": {"line1": "1 30173U 99025UE  25352.71106866  .00002244  00000+0  12258-2 0  9992", "line2": "2 30173  98.9768  63.4725 0080921 271.6614 218.5759 14.11417427966333"}}, "geometry": {"type": "Point", "coordinates": [-121.14472541242694, -32.12791091261014]}}, {"type": "Feature", "properties": {"norad_id": 30174, "name": "FENGYUN 1C DEB", "group": "fengyun-1c-debris", "lat": -14.874685856326437, "lon": -39.06334434321914, "alt_km": 642.2063792237641, "timestamp": "2025-12-19T18:58:41.862477+00:00", "meta": {"OBJECT_NAME": "FENGYUN 1C DEB", "OBJECT_ID": "1999-025UF", "EPOCH": "2025-12-18T23:10:23.909664", "MEAN_MOTION": 14.81414025, "ECCENTRICITY": 0.00183603, "INCLINATION": 98.7755, "RA_OF_ASC_NODE": 142.3851, "ARG_OF_PERICENTER": 24.9573, "MEAN_ANOMALY": 91.6052, "EPHEMERIS_TYPE": 0, "CLASSIFICATION_TYPE": "U", "NORAD_CAT_ID": 30174, "ELEMENT_SET_NO": 999, "REV_AT_EPOCH": 98460, "BSTAR": 0.0029466475, "MEAN_MOTION_DOT": 0.0002313, "MEAN_MOTION_DDOT": 0}, "tle": {"line1": "1 30174U 99025UF  25352.96555451  .00023130  00000+0  29466-2 0  9994", "line2": "2 30174  98.7755 142.3851 0018360  24.9573  91.6052 14.81414025984600"}}, "geometry": {"type": "Point", "coordinates": [-39.06334434321914, -14.874685856326437]}}, {"type": "Feature", "properties": {"norad_id": 30175, "name": "FENGYUN 1C DEB", "group": "fengyun-1c-debris", "lat": -36.83666106199118, "lon": 56.96024738652823, "alt_km": 1022.6783463788161, "timestamp": "2025-12-19T18:58:41.862487+00:00", "meta": {"OBJECT_NAME": "FENGYUN 1C DEB", "OBJECT_ID": "1999-025UG", "EPOCH": "2025-12-18T17:44:29.324256", "MEAN_MOTION": 13.83872785, "ECCENTRICITY": 0.01465344, "INCLINATION": 99.3804, "RA_OF_ASC_NODE": 48.7981, "ARG_OF_PERICENTER": 196.7279, "MEAN_ANOMALY": 288.7406, "EPHEMERIS_TYPE": 0, "CLASSIFICATION_TYPE": "U", "NORAD_CAT_ID": 30175, "ELEMENT_SET_NO": 999, "REV_AT_EPOCH": 95423, "BSTAR": 0.00033881912, "MEAN_MOTION_DOT": 3.63e-06, "MEAN_MOTION_DDOT": 0}, "tle": {"line1": "1 30175U 99025UG  25352.73922829  .00000363  00000+0  33882-3 0  9998", "line2": "2 30175  99.3804  48.7981 0146534 196.7279 288.7406 13.83872785954232"}}, "geometry": {"type": "Point", "coordinates": [56.96024738652823, -36.83666106199118]}}, {"type": "Feature", "properties": {"norad_id": 30177, "name": "FENGYUN 1C DEB", "group": "fengyun-1c-debris", "lat": -50.81506543784195, "lon": -52.60921784773451, "alt_km": 1362.8027315645868, "timestamp": "2025-12-19T18:58:41.862497+00:00", "meta": {"OBJECT_NAME": "FENGYUN 1C DEB", "OBJECT_ID": "1999-025UJ", "EPOCH": "2025-12-19T07:40:13.465056", "MEAN_MOTION": 13.62829592, "ECCENTRICITY": 0.04519714, "INCLINATION": 98.627, "RA_OF_ASC_NODE": 296.2385, "ARG_OF_PERICENTER": 121.0304, "MEAN_ANOMALY": 37.8552, "EPHEMERIS_TYPE": 0, "CLASSIFICATION_TYPE": "U", "NORAD_CAT_ID": 30177, "ELEMENT_SET_NO": 999, "REV_AT_EPOCH": 93552, "BSTAR": 0.00070895318, "MEAN_MOTION_DOT": 1.071e-05, "MEAN_MOTION_DDOT": 0}, "tle": {"line1": "1 30177U 99025UJ  25353.31960029  .00001071  00000+0  70895-3 0  9991", "line2": "2 30177  98.6270 296.2385 0451971 121.0304  37.8552 13.62829592935526"}}, "geometry": {"type": "Point", "coordinates": [-52.60921784773451, -50.81506543784195]}}, {"type": "Feature", "properties": {"norad_id": 30178, "name": "FENGYUN 1C DEB", "group": "fengyun-1c-debris", "lat": 76.7301248084674, "lon": 116.1874898539662, "alt_km": 832.138521007837, "timestamp": "2025-12-19T18:58:41.862507+00:00", "meta": {"OBJECT_NAME": "FENGYUN 1C DEB", "OBJECT_ID": "1999-025UK", "EPOCH": "2025-12-19T04:58:36.723072", "MEAN_MOTION": 13.58705962, "ECCENTRICITY": 0.02808232, "INCLINATION": 102.2606, "RA_OF_ASC_NODE": 228.2359, "ARG_OF_PERICENTER": 112.2749, "MEAN_ANOMALY": 11.4293, "EPHEMERIS_TYPE": 0, "CLASSIFICATION_TYPE": "U", "NORAD_CAT_ID": 30178, "ELEMENT_SET_NO": 999, "REV_AT_EPOCH": 93259, "BSTAR": 0.0015162116, "MEAN_MOTION_DOT": 1.372e-05, "MEAN_MOTION_DDOT": 0}, "tle": {"line1": "1 30178U 99025UK  25353.20736948  .00001372  00000+0  15162-2 0  9990", "line2": "2 30178 102.2606 228.2359 0280823 112.2749  11.4293 13.58705962932592"}}, "geometry": {"type": "Point", "coordinates": [116.1874898539662, 76.7301248084674]}}, {"type": "Feature", "properties": {"norad_id": 30181, "name": "FENGYUN 1C DEB", "group": "fengyun-1c-debris", "lat": 53.32726635050401, "lon": 65.03317977570197, "alt_km": 781.8479614876524, "timestamp": "2025-12-19T18:58:41.862517+00:00", "meta": {"OBJECT_NAME": "FENGYUN 1C DEB", "OBJECT_ID": "1999-025UN", "EPOCH": "2025-12-19T05:33:54.208224", "MEAN_MOTION": 14.29290276, "ECCENTRICITY": 0.00400123, "INCLINATION": 98.8436, "RA_OF_ASC_NODE": 76.5346, "ARG_OF_PERICENTER": 340.2535, "MEAN_ANOMALY": 79.5439, "EPHEMERIS_TYPE": 0, "CLASSIFICATION_TYPE": "U", "NORAD_CAT_ID": 30181, "ELEMENT_SET_NO": 999, "REV_AT_EPOCH": 97604, "BSTAR": 0.0010925174, "MEAN_MOTION_DOT": 2.758e-05, "MEAN_MOTION_DDOT": 0}, "tle": {"line1": "1 30181U 99025UN  25353.23187741  .00002758  00000+0  10925-2 0  9999", "line2": "2 30181  98.8436  76.5346 0040012 340.2535  79.5439 14.29290276976048"}}, "geometry": {"type": "Point", "coordinates": [65.03317977570197, 53.32726635050401]}}, {"type": "Feature", "properties": {"norad_id": 30182, "name": "FENGYUN 1C DEB", "group": "fengyun-1c-debris", "lat": 14.065012635950154, "lon": -133.0454424447079, "alt_km": 958.7610211672454, "timestamp": "2025-12-19T18:58:41.862528+00:00", "meta": {"OBJECT_NAME": "FENGYUN 1C DEB", "OBJECT_ID": "1999-025UP", "EPOCH": "2025-12-19T02:50:39.009984", "MEAN_MOTION": 13.96459341, "ECCENTRICITY": 0.00746967, "INCLINATION": 99.0648, "RA_OF_ASC_NODE": 44.0003, "ARG_OF_PERICENTER": 5.1917, "MEAN_ANOMALY": 22.4354, "EPHEMERIS_TYPE": 0, "CLASSIFICATION_TYPE": "U", "NORAD_CAT_ID": 30182, "ELEMENT_SET_NO": 999, "REV_AT_EPOCH": 96397, "BSTAR": 1.8654821e-05, "MEAN_MOTION_DOT": -1.8e-07, "MEAN_MOTION_DDOT": 0}, "tle": {"line1": "1 30182U 99025UP  25353.11850706 -.00000018  00000+0  18655-4 0  9993", "line2": "2 30182  99.0648  44.0003 0074696   5.1917  22.4354 13.96459341963977"}}, "geometry": {"type": "Point", "coordinates": [-133.0454424447079, 14.065012635950154]}}, {"type": "Feature", "properties": {"norad_id": 30183, "name": "FENGYUN 1C DEB", "group": "fengyun-1c-debris", "lat": 18.585214377415348, "lon": 32.91422129924156, "alt_km": 866.1380771666572, "timestamp": "2025-12-19T18:58:41.862538+00:00", "meta": {"OBJECT_NAME": "FENGYUN 1C DEB", "OBJECT_ID": "1999-025UQ", "EPOCH": "2025-12-18T14:42:33.554304", "MEAN_MOTION": 14.12673439, "ECCENTRICITY": 0.00261923, "INCLINATION": 98.788, "RA_OF_ASC_NODE": 34.7404, "ARG_OF_PERICENTER": 236.1826, "MEAN_ANOMALY": 275.6873, "EPHEMERIS_TYPE": 0, "CLASSIFICATION_TYPE": "U", "NORAD_CAT_ID": 30183, "ELEMENT_SET_NO": 999, "REV_AT_EPOCH": 97226, "BSTAR": 0.00043365976, "MEAN_MOTION_DOT": 7.63e-06, "MEAN_MOTION_DDOT": 0}, "tle": {"line1": "1 30183U 99025UQ  25352.61288836  .00000763  00000+0  43366-3 0  9999", "line2": "2 30183  98.7880  34.7404 0026192 236.1826 275.6873 14.12673439972261"}}, "geometry": {"type": "Point", "coordinates": [32.91422129924156, 18.585214377415348]}}, {"type": "Feature", "properties": {"norad_id": 30191, "name": "FENGYUN 1C DEB", "group": "fengyun-1c-debris", "lat": 20.325858605655633, "lon": -111.12047559094485, "alt_km": 624.8648791546975, "timestamp": "2025-12-19T18:58:41.862548+00:00", "meta": {"OBJECT_NAME": "FENGYUN 1C DEB", "OBJECT_ID": "1999-025UY", "EPOCH": "2025-12-19T03:45:58.669920", "MEAN_MOTION": 14.78124366, "ECCENTRICITY": 0.00971116, "INCLINATION": 98.7759, "RA_OF_ASC_NODE": 64.9089, "ARG_OF_PERICENTER": 243.1066, "MEAN_ANOMALY": 146.5129, "EPHEMERIS_TYPE": 0, "CLASSIFICATION_TYPE": "U", "NORAD_CAT_ID": 30191, "ELEMENT_SET_NO": 999, "REV_AT_EPOCH": 370, "BSTAR": 0.0010006286, "MEAN_MOTION_DOT": 7.774e-05, "MEAN_MOTION_DDOT": 0}, "tle": {"line1": "1 30191U 99025UY  25353.15692905  .00007774  00000+0  10006-2 0  9997", "line2": "2 30191  98.7759  64.9089 0097111 243.1066 146.5129 14.78124366  3708"}}, "geometry": {"type": "Point", "coordinates": [-111.12047559094485, 20.325858605655633]}}, {"type": "Feature", "properties": {"norad_id": 30193, "name": "FENGYUN 1C DEB", "group": "fengyun-1c-debris", "lat": -42.66747086069268, "lon": 74.09932987409498, "alt_km": 761.9961215799121, "timestamp": "2025-12-19T18:58:41.862558+00:00", "meta": {"OBJECT_NAME": "FENGYUN 1C DEB", "OBJECT_ID": "1999-025VA", "EPOCH": "2025-12-18T17:14:19.529376", "MEAN_MOTION": 14.49150072, "ECCENTRICITY": 0.01074514, "INCLINATION": 98.7569, "RA_OF_ASC_NODE": 261.1544, "ARG_OF_PERICENTER": 115.1731, "MEAN_ANOMALY": 275.037, "EPHEMERIS_TYPE": 0, "CLASSIFICATION_TYPE": "U", "NORAD_CAT_ID": 30193, "ELEMENT_SET_NO": 999, "REV_AT_EPOCH": 99253, "BSTAR": 0.00048799881, "MEAN_MOTION_DOT": 1.946e-05, "MEAN_MOTION_DDOT": 0}, "tle": {"line1": "1 30193U 99025VA  25352.71828159  .00001946  00000+0  48800-3 0  9991", "line2": "2 30193  98.7569 261.1544 0107451 115.1731 275.0370 14.49150072992537"}}, "geometry": {"type": "Point", "coordinates": [74.09932987409498, -42.66747086069268]}}]}